start=new Date('2022-06-14T00:00:00.000Z').valueOf();
sats=[{"ARG_OF_PERICENTER":"72.0568","REV_AT_EPOCH":"130","BSTAR":"-0.01918400000000","MEAN_ELEMENT_THEORY":"SGP4","GP_ID":"206062889","MEAN_MOTION":"15.39903712","CENTER_NAME":"EARTH","RA_OF_ASC_NODE":"79.4534","TLE_LINE1":"1 52136U 22029BA  22164.58334491 -.00716105  00000-0 -19184-1 0  9990","RCS_SIZE":"LARGE","EPOCH":"2022-06-13T14:00:01.000224","OBJECT_NAME":"STARLINK-3720","APOAPSIS":"447.261","ECCENTRICITY":"0.00012680","CLASSIFICATION_TYPE":"U","MEAN_ANOMALY":"202.2102","PERIAPSIS":"445.530","REF_FRAME":"TEME","DECAY_DATE":null,"EPHEMERIS_TYPE":"0","SITE":"AFETR","COUNTRY_CODE":"US","ELEMENT_SET_NO":"999","OBJECT_TYPE":"PAYLOAD","TLE_LINE2":"2 52136  53.2175  79.4534 0001268  72.0568 202.2102 15.39903712  1302","MEAN_MOTION_DDOT":"0.0000000000000","INCLINATION":"53.2175","OBJECT_ID":"2022-029BA","SEMIMAJOR_AXIS":"6824.531","NORAD_CAT_ID":"52136","FILE":"3494620","MEAN_MOTION_DOT":"-0.00716105","TIME_SYSTEM":"UTC","PERIOD":"93.512","LAUNCH_DATE":"2022-03-19"},{"TIME_SYSTEM":"UTC","MEAN_MOTION_DOT":"-0.00716276","PERIOD":"93.476","LAUNCH_DATE":"2022-03-19","OBJECT_ID":"2022-029BB","INCLINATION":"53.2175","MEAN_MOTION_DDOT":"0.0000000000000","NORAD_CAT_ID":"52137","FILE":"3494620","SEMIMAJOR_AXIS":"6822.773","COUNTRY_CODE":"US","OBJECT_TYPE":"PAYLOAD","TLE_LINE2":"2 52137  53.2175  79.4807 0001317  60.6682 229.6563 15.40498881  1303","ELEMENT_SET_NO":"999","REF_FRAME":"TEME","DECAY_DATE":null,"SITE":"AFETR","EPHEMERIS_TYPE":"0","ECCENTRICITY":"0.00013170","CLASSIFICATION_TYPE":"U","MEAN_ANOMALY":"229.6563","PERIAPSIS":"443.739","RA_OF_ASC_NODE":"79.4807","EPOCH":"2022-06-13T14:00:01.000224","TLE_LINE1":"1 52137U 22029BB  22164.58334491 -.00716276  00000-0 -18813-1 0  9998","RCS_SIZE":"LARGE","OBJECT_NAME":"STARLINK-3733","APOAPSIS":"445.536","BSTAR":"-0.01881300000000","MEAN_ELEMENT_THEORY":"SGP4","GP_ID":"206062439","MEAN_MOTION":"15.40498881","CENTER_NAME":"EARTH","REV_AT_EPOCH":"130","ARG_OF_PERICENTER":"60.6682"},{"REF_FRAME":"TEME","DECAY_DATE":null,"SITE":"AFETR","EPHEMERIS_TYPE":"0","COUNTRY_CODE":"US","TLE_LINE2":"2 52138  53.2175  79.4627 0001294  65.9753 213.7368 15.40102051  1303","OBJECT_TYPE":"PAYLOAD","ELEMENT_SET_NO":"999","INCLINATION":"53.2175","OBJECT_ID":"2022-029BC","MEAN_MOTION_DDOT":"0.0000000000000","NORAD_CAT_ID":"52138","FILE":"3494620","SEMIMAJOR_AXIS":"6823.945","TIME_SYSTEM":"UTC","MEAN_MOTION_DOT":"-0.00716033","PERIOD":"93.500","LAUNCH_DATE":"2022-03-19","REV_AT_EPOCH":"130","ARG_OF_PERICENTER":"65.9753","BSTAR":"-0.01905600000000","GP_ID":"206062572","MEAN_ELEMENT_THEORY":"SGP4","MEAN_MOTION":"15.40102051","CENTER_NAME":"EARTH","RA_OF_ASC_NODE":"79.4627","EPOCH":"2022-06-13T14:00:01.000224","RCS_SIZE":"LARGE","TLE_LINE1":"1 52138U 22029BC  22164.58334491 -.00716033  00000-0 -19056-1 0  9990","OBJECT_NAME":"STARLINK-3723","APOAPSIS":"446.693","ECCENTRICITY":"0.00012940","CLASSIFICATION_TYPE":"U","MEAN_ANOMALY":"213.7368","PERIAPSIS":"444.927"},{"CENTER_NAME":"EARTH","MEAN_MOTION":"15.08867577","GP_ID":"206065229","MEAN_ELEMENT_THEORY":"SGP4","BSTAR":"-0.00141130000000","ARG_OF_PERICENTER":"50.7116","REV_AT_EPOCH":"1475","MEAN_ANOMALY":"57.0072","PERIAPSIS":"538.547","CLASSIFICATION_TYPE":"U","ECCENTRICITY":"0.00016100","APOAPSIS":"540.775","OBJECT_NAME":"STARLINK-3730","TLE_LINE1":"1 52139U 22029BD  22164.91667824 -.00022696  00000-0 -14113-2 0  9992","RCS_SIZE":"LARGE","EPOCH":"2022-06-13T22:00:00.999936","RA_OF_ASC_NODE":"85.8264","ELEMENT_SET_NO":"999","OBJECT_TYPE":"PAYLOAD","TLE_LINE2":"2 52139  53.2121  85.8264 0001610  50.7116  57.0072 15.08867577 14759","COUNTRY_CODE":"US","EPHEMERIS_TYPE":"0","SITE":"AFETR","DECAY_DATE":null,"REF_FRAME":"TEME","LAUNCH_DATE":"2022-03-19","PERIOD":"95.436","MEAN_MOTION_DOT":"-0.00022696","TIME_SYSTEM":"UTC","SEMIMAJOR_AXIS":"6917.796","NORAD_CAT_ID":"52139","FILE":"3494799","MEAN_MOTION_DDOT":"0.0000000000000","INCLINATION":"53.2121","OBJECT_ID":"2022-029BD"},{"REV_AT_EPOCH":"130","ARG_OF_PERICENTER":"62.5095","CENTER_NAME":"EARTH","MEAN_MOTION":"15.40693489","MEAN_ELEMENT_THEORY":"SGP4","GP_ID":"206062545","BSTAR":"-0.01869300000000","APOAPSIS":"444.948","OBJECT_NAME":"STARLINK-3682","EPOCH":"2022-06-13T14:00:01.000224","TLE_LINE1":"1 52140U 22029BE  22164.58334491 -.00716329  00000-0 -18693-1 0  9997","RCS_SIZE":"LARGE","RA_OF_ASC_NODE":"79.4895","MEAN_ANOMALY":"233.2658","PERIAPSIS":"443.179","CLASSIFICATION_TYPE":"U","ECCENTRICITY":"0.00012970","SITE":"AFETR","EPHEMERIS_TYPE":"0","DECAY_DATE":null,"REF_FRAME":"TEME","TLE_LINE2":"2 52140  53.2175  79.4895 0001297  62.5095 233.2658 15.40693489  1307","OBJECT_TYPE":"PAYLOAD","ELEMENT_SET_NO":"999","COUNTRY_CODE":"US","FILE":"3494620","NORAD_CAT_ID":"52140","SEMIMAJOR_AXIS":"6822.198","INCLINATION":"53.2175","OBJECT_ID":"2022-029BE","MEAN_MOTION_DDOT":"0.0000000000000","LAUNCH_DATE":"2022-03-19","PERIOD":"93.464","TIME_SYSTEM":"UTC","MEAN_MOTION_DOT":"-0.00716329"},{"SITE":"AFETR","EPHEMERIS_TYPE":"0","REF_FRAME":"TEME","DECAY_DATE":null,"TLE_LINE2":"2 52261  53.2176 116.7839 0001690  39.4420 309.0508 15.28473348  9532","OBJECT_TYPE":"PAYLOAD","ELEMENT_SET_NO":"999","COUNTRY_CODE":"US","FILE":"3494809","NORAD_CAT_ID":"52261","SEMIMAJOR_AXIS":"6858.512","OBJECT_ID":"2022-041A","INCLINATION":"53.2176","MEAN_MOTION_DDOT":"0.0000000000000","LAUNCH_DATE":"2022-04-21","TIME_SYSTEM":"UTC","MEAN_MOTION_DOT":"-0.00724799","PERIOD":"94.212","REV_AT_EPOCH":"953","ARG_OF_PERICENTER":"39.4420","MEAN_MOTION":"15.28473348","CENTER_NAME":"EARTH","BSTAR":"-0.02765600000000","GP_ID":"206066165","MEAN_ELEMENT_THEORY":"SGP4","OBJECT_NAME":"STARLINK-3810","APOAPSIS":"481.536","RA_OF_ASC_NODE":"116.7839","EPOCH":"2022-06-13T22:00:00.999936","RCS_SIZE":"LARGE","TLE_LINE1":"1 52261U 22041A   22164.91667824 -.00724799  00000-0 -27656-1 0  9990","MEAN_ANOMALY":"309.0508","PERIAPSIS":"479.218","ECCENTRICITY":"0.00016900","CLASSIFICATION_TYPE":"U"},{"COUNTRY_CODE":"US","ELEMENT_SET_NO":"999","TLE_LINE2":"2 52262  53.2176 116.7752 0001753  37.5249 296.9453 15.28230028  9534","OBJECT_TYPE":"PAYLOAD","REF_FRAME":"TEME","DECAY_DATE":null,"EPHEMERIS_TYPE":"0","SITE":"AFETR","MEAN_MOTION_DOT":"-0.00724715","TIME_SYSTEM":"UTC","PERIOD":"94.227","LAUNCH_DATE":"2022-04-21","MEAN_MOTION_DDOT":"0.0000000000000","INCLINATION":"53.2176","OBJECT_ID":"2022-041B","SEMIMAJOR_AXIS":"6859.240","NORAD_CAT_ID":"52262","FILE":"3494809","BSTAR":"-0.02786000000000","MEAN_ELEMENT_THEORY":"SGP4","GP_ID":"206066022","MEAN_MOTION":"15.28230028","CENTER_NAME":"EARTH","REV_AT_EPOCH":"953","ARG_OF_PERICENTER":"37.5249","ECCENTRICITY":"0.00017530","CLASSIFICATION_TYPE":"U","MEAN_ANOMALY":"296.9453","PERIAPSIS":"479.903","RA_OF_ASC_NODE":"116.7752","TLE_LINE1":"1 52262U 22041B   22164.91667824 -.00724715  00000-0 -27860-1 0  9996","RCS_SIZE":"LARGE","EPOCH":"2022-06-13T22:00:00.999936","OBJECT_NAME":"STARLINK-3761","APOAPSIS":"482.308"},{"ARG_OF_PERICENTER":"42.0399","REV_AT_EPOCH":"952","GP_ID":"206066016","MEAN_ELEMENT_THEORY":"SGP4","BSTAR":"-0.02782100000000","CENTER_NAME":"EARTH","MEAN_MOTION":"15.28275100","RCS_SIZE":"LARGE","TLE_LINE1":"1 52263U 22041C   22164.91667824 -.00724690  00000-0 -27821-1 0  9996","EPOCH":"2022-06-13T22:00:00.999936","RA_OF_ASC_NODE":"116.7767","APOAPSIS":"482.089","OBJECT_NAME":"STARLINK-3786","CLASSIFICATION_TYPE":"U","ECCENTRICITY":"0.00016300","MEAN_ANOMALY":"295.5697","PERIAPSIS":"479.852","DECAY_DATE":null,"REF_FRAME":"TEME","EPHEMERIS_TYPE":"0","SITE":"AFETR","COUNTRY_CODE":"US","ELEMENT_SET_NO":"999","TLE_LINE2":"2 52263  53.2176 116.7767 0001630  42.0399 295.5697 15.28275100  9526","OBJECT_TYPE":"PAYLOAD","MEAN_MOTION_DDOT":"0.0000000000000","INCLINATION":"53.2176","OBJECT_ID":"2022-041C","SEMIMAJOR_AXIS":"6859.106","FILE":"3494809","NORAD_CAT_ID":"52263","PERIOD":"94.224","MEAN_MOTION_DOT":"-0.00724690","TIME_SYSTEM":"UTC","LAUNCH_DATE":"2022-04-21"},{"COUNTRY_CODE":"US","OBJECT_TYPE":"PAYLOAD","TLE_LINE2":"2 52264  53.2176 116.7906 0001603  41.1577 318.1259 15.28671515  9526","ELEMENT_SET_NO":"999","REF_FRAME":"TEME","DECAY_DATE":null,"SITE":"AFETR","EPHEMERIS_TYPE":"0","TIME_SYSTEM":"UTC","MEAN_MOTION_DOT":"-0.00724723","PERIOD":"94.199","LAUNCH_DATE":"2022-04-21","INCLINATION":"53.2176","OBJECT_ID":"2022-041D","MEAN_MOTION_DDOT":"0.0000000000000","FILE":"3494809","NORAD_CAT_ID":"52264","SEMIMAJOR_AXIS":"6857.920","BSTAR":"-0.02748500000000","MEAN_ELEMENT_THEORY":"SGP4","GP_ID":"206066020","MEAN_MOTION":"15.28671515","CENTER_NAME":"EARTH","REV_AT_EPOCH":"952","ARG_OF_PERICENTER":"41.1577","ECCENTRICITY":"0.00016030","CLASSIFICATION_TYPE":"U","MEAN_ANOMALY":"318.1259","PERIAPSIS":"478.685","RA_OF_ASC_NODE":"116.7906","EPOCH":"2022-06-13T22:00:00.999936","TLE_LINE1":"1 52264U 22041D   22164.91667824 -.00724723  00000-0 -27485-1 0  9990","RCS_SIZE":"LARGE","OBJECT_NAME":"STARLINK-3795","APOAPSIS":"480.884"},{"REF_FRAME":"TEME","DECAY_DATE":null,"SITE":"AFETR","EPHEMERIS_TYPE":"0","COUNTRY_CODE":"US","TLE_LINE2":"2 52265  53.2174 118.3435 0001563  42.9243 291.0921 15.29381512  1303","OBJECT_TYPE":"PAYLOAD","ELEMENT_SET_NO":"999","OBJECT_ID":"2022-041E","INCLINATION":"53.2174","MEAN_MOTION_DDOT":"0.0000000000000","FILE":"3494620","NORAD_CAT_ID":"52265","SEMIMAJOR_AXIS":"6855.797","TIME_SYSTEM":"UTC","MEAN_MOTION_DOT":"-0.00728878","PERIOD":"94.156","LAUNCH_DATE":"2022-04-21","REV_AT_EPOCH":"130","ARG_OF_PERICENTER":"42.9243","BSTAR":"-0.02705400000000","MEAN_ELEMENT_THEORY":"SGP4","GP_ID":"206062452","MEAN_MOTION":"15.29381512","CENTER_NAME":"EARTH","RA_OF_ASC_NODE":"118.3435","EPOCH":"2022-06-13T14:00:01.000224","TLE_LINE1":"1 52265U 22041E   22164.58334491 -.00728878  00000-0 -27054-1 0  9992","RCS_SIZE":"LARGE","OBJECT_NAME":"STARLINK-3740","APOAPSIS":"478.734","ECCENTRICITY":"0.00015630","CLASSIFICATION_TYPE":"U","PERIAPSIS":"476.590","MEAN_ANOMALY":"291.0921"}];
